[{"OBJECT_NAME":"STARLINK-31019","OBJECT_ID":"2023-192K","EPOCH":"2026-03-09T22:33:21.694752","MEAN_MOTION":15.30131457,"ECCENTRICITY":7.979e-5,"INCLINATION":53.1607,"RA_OF_ASC_NODE":61.578,"ARG_OF_PERICENTER":106.0486,"MEAN_ANOMALY":254.0603,"EPHEMERIS_TYPE":0,"CLASSIFICATION_TYPE":"U","NORAD_CAT_ID":58540,"ELEMENT_SET_NO":999,"REV_AT_EPOCH":12602,"BSTAR":0.00050561276,"MEAN_MOTION_DOT":0.00014614,"MEAN_MOTION_DDOT":0},{"OBJECT_NAME":"OBJECT A","OBJECT_ID":"2025-013A","EPOCH":"2026-03-09T23:29:31.895232","MEAN_MOTION":15.29260221,"ECCENTRICITY":0.0010321,"INCLINATION":97.6364,"RA_OF_ASC_NODE":244.5149,"ARG_OF_PERICENTER":282.3775,"MEAN_ANOMALY":77.6309,"EPHEMERIS_TYPE":0,"CLASSIFICATION_TYPE":"U","NORAD_CAT_ID":62729,"ELEMENT_SET_NO":999,"REV_AT_EPOCH":6276,"BSTAR":0.0013206527,"MEAN_MOTION_DOT":0.00037616,"MEAN_MOTION_DDOT":0}]
